CCSDS_OMM_VERS = 2.0
CREATION_DATE  = 
ORIGINATOR     = 

OBJECT_NAME    = SL-14 R/B
OBJECT_ID      = 1991-042B
CENTER_NAME    = EARTH
REF_FRAME      = TEME
TIME_SYSTEM    = UTC
MEAN_ELEMENT_THEORY = SGP/SGP4

EPOCH          = 2026-01-16T23:09:05.296032
MEAN_MOTION    = 14.81775472
ECCENTRICITY   = .00183256
INCLINATION    = 82.4927
RA_OF_ASC_NODE = 268.6959
ARG_OF_PERICENTER = 54.0570
MEAN_ANOMALY   = 306.2341

EPHEMERIS_TYPE = 0
CLASSIFICATION_TYPE = U
NORAD_CAT_ID   = 21423
ELEMENT_SET_NO = 999
REV_AT_EPOCH   = 84541
BSTAR          = .39820931E-4
MEAN_MOTION_DOT = .339E-5
MEAN_MOTION_DDOT = 0

CCSDS_OMM_VERS = 2.0
CREATION_DATE  = 
ORIGINATOR     = 

OBJECT_NAME    = ERS-1
OBJECT_ID      = 1991-050A
CENTER_NAME    = EARTH
REF_FRAME      = TEME
TIME_SYSTEM    = UTC
MEAN_ELEMENT_THEORY = SGP/SGP4

EPOCH          = 2026-01-16T23:31:54.424128
MEAN_MOTION    = 14.39397214
ECCENTRICITY   = .00318886
INCLINATION    = 98.7897
RA_OF_ASC_NODE = 33.9162
ARG_OF_PERICENTER = 357.6719
MEAN_ANOMALY   = 2.4314

EPHEMERIS_TYPE = 0
CLASSIFICATION_TYPE = U
NORAD_CAT_ID   = 21574
ELEMENT_SET_NO = 999
REV_AT_EPOCH   = 80829
BSTAR          = .10032262E-3
MEAN_MOTION_DOT = .267E-5
MEAN_MOTION_DDOT = 0

CCSDS_OMM_VERS = 2.0
CREATION_DATE  = 
ORIGINATOR     = 

OBJECT_NAME    = ARIANE 40 R/B
OBJECT_ID      = 1991-050F
CENTER_NAME    = EARTH
REF_FRAME      = TEME
TIME_SYSTEM    = UTC
MEAN_ELEMENT_THEORY = SGP/SGP4

EPOCH          = 2026-01-16T17:43:04.181376
MEAN_MOTION    = 14.42845058
ECCENTRICITY   = .00024293
INCLINATION    = 98.2115
RA_OF_ASC_NODE = 70.8976
ARG_OF_PERICENTER = 212.2924
MEAN_ANOMALY   = 147.8119

EPHEMERIS_TYPE = 0
CLASSIFICATION_TYPE = U
NORAD_CAT_ID   = 21610
ELEMENT_SET_NO = 999
REV_AT_EPOCH   = 81150
BSTAR          = .73401759E-4
MEAN_MOTION_DOT = .203E-5
MEAN_MOTION_DDOT = 0

CCSDS_OMM_VERS = 2.0
CREATION_DATE  = 
ORIGINATOR     = 

OBJECT_NAME    = INTERCOSMOS 25
OBJECT_ID      = 1991-086A
CENTER_NAME    = EARTH
REF_FRAME      = TEME
TIME_SYSTEM    = UTC
MEAN_ELEMENT_THEORY = SGP/SGP4

EPOCH          = 2026-01-16T21:20:57.755040
MEAN_MOTION    = 12.11857402
ECCENTRICITY   = .1486014
INCLINATION    = 82.6087
RA_OF_ASC_NODE = 341.3143
ARG_OF_PERICENTER = 228.5745
MEAN_ANOMALY   = 117.8031

EPHEMERIS_TYPE = 0
CLASSIFICATION_TYPE = U
NORAD_CAT_ID   = 21819
ELEMENT_SET_NO = 999
REV_AT_EPOCH   = 49041
BSTAR          = .11411172E-3
MEAN_MOTION_DOT = .58E-5
MEAN_MOTION_DDOT = 0

CCSDS_OMM_VERS = 2.0
CREATION_DATE  = 
ORIGINATOR     = 

OBJECT_NAME    = SL-8 R/B
OBJECT_ID      = 1992-008B
CENTER_NAME    = EARTH
REF_FRAME      = TEME
TIME_SYSTEM    = UTC
MEAN_ELEMENT_THEORY = SGP/SGP4

EPOCH          = 2026-01-16T17:30:53.393760
MEAN_MOTION    = 13.75966470
ECCENTRICITY   = .00333781
INCLINATION    = 82.9289
RA_OF_ASC_NODE = 306.4245
ARG_OF_PERICENTER = 280.5749
MEAN_ANOMALY   = 143.8680

EPHEMERIS_TYPE = 0
CLASSIFICATION_TYPE = U
NORAD_CAT_ID   = 21876
ELEMENT_SET_NO = 999
REV_AT_EPOCH   = 70227
BSTAR          = .57339333E-4
MEAN_MOTION_DOT = .71E-6
MEAN_MOTION_DDOT = 0

CCSDS_OMM_VERS = 2.0
CREATION_DATE  = 
ORIGINATOR     = 

OBJECT_NAME    = SL-8 R/B
OBJECT_ID      = 1992-020B
CENTER_NAME    = EARTH
REF_FRAME      = TEME
TIME_SYSTEM    = UTC
MEAN_ELEMENT_THEORY = SGP/SGP4

EPOCH          = 2026-01-16T23:37:37.575552
MEAN_MOTION    = 13.75538549
ECCENTRICITY   = .0030242
INCLINATION    = 82.9296
RA_OF_ASC_NODE = 192.1440
ARG_OF_PERICENTER = 82.6349
MEAN_ANOMALY   = 27.9539

EPHEMERIS_TYPE = 0
CLASSIFICATION_TYPE = U
NORAD_CAT_ID   = 21938
ELEMENT_SET_NO = 999
REV_AT_EPOCH   = 69402
BSTAR          = .16601207E-3
MEAN_MOTION_DOT = .176E-5
MEAN_MOTION_DDOT = 0

CCSDS_OMM_VERS = 2.0
CREATION_DATE  = 
ORIGINATOR     = 

OBJECT_NAME    = USA 81
OBJECT_ID      = 1992-023A
CENTER_NAME    = EARTH
REF_FRAME      = TEME
TIME_SYSTEM    = UTC
MEAN_ELEMENT_THEORY = SGP/SGP4

EPOCH          = 2026-01-16T21:27:08.089632
MEAN_MOTION    = 14.32342900
ECCENTRICITY   = .00017731
INCLINATION    = 85.0104
RA_OF_ASC_NODE = 161.3033
ARG_OF_PERICENTER = 117.5468
MEAN_ANOMALY   = 242.5905

EPHEMERIS_TYPE = 0
CLASSIFICATION_TYPE = U
NORAD_CAT_ID   = 21949
ELEMENT_SET_NO = 999
REV_AT_EPOCH   = 8737
BSTAR          = .56062447E-4
MEAN_MOTION_DOT = .171E-5
MEAN_MOTION_DDOT = 0

CCSDS_OMM_VERS = 2.0
CREATION_DATE  = 
ORIGINATOR     = 

OBJECT_NAME    = COSMOS 2219
OBJECT_ID      = 1992-076A
CENTER_NAME    = EARTH
REF_FRAME      = TEME
TIME_SYSTEM    = UTC
MEAN_ELEMENT_THEORY = SGP/SGP4

EPOCH          = 2026-01-16T17:46:09.251040
MEAN_MOTION    = 14.14081321
ECCENTRICITY   = .0020741
INCLINATION    = 71.0619
RA_OF_ASC_NODE = 126.6693
ARG_OF_PERICENTER = 278.9191
MEAN_ANOMALY   = 80.9584

EPHEMERIS_TYPE = 0
CLASSIFICATION_TYPE = U
NORAD_CAT_ID   = 22219
ELEMENT_SET_NO = 999
REV_AT_EPOCH   = 71103
BSTAR          = -.24162917E-4
MEAN_MOTION_DOT = -.93E-6
MEAN_MOTION_DDOT = 0

CCSDS_OMM_VERS = 2.0
CREATION_DATE  = 
ORIGINATOR     = 

OBJECT_NAME    = SL-16 R/B
OBJECT_ID      = 1992-076B
CENTER_NAME    = EARTH
REF_FRAME      = TEME
TIME_SYSTEM    = UTC
MEAN_ELEMENT_THEORY = SGP/SGP4

EPOCH          = 2026-01-16T22:48:14.151456
MEAN_MOTION    = 14.16850169
ECCENTRICITY   = .00128528
INCLINATION    = 71.0013
RA_OF_ASC_NODE = 297.3625
ARG_OF_PERICENTER = 184.7877
MEAN_ANOMALY   = 253.4932

EPHEMERIS_TYPE = 0
CLASSIFICATION_TYPE = U
NORAD_CAT_ID   = 22220
ELEMENT_SET_NO = 999
REV_AT_EPOCH   = 71450
BSTAR          = .44288348E-4
MEAN_MOTION_DOT = .41E-6
MEAN_MOTION_DDOT = 0

CCSDS_OMM_VERS = 2.0
CREATION_DATE  = 
ORIGINATOR     = 

OBJECT_NAME    = COSMOS 2221
OBJECT_ID      = 1992-080A
CENTER_NAME    = EARTH
REF_FRAME      = TEME
TIME_SYSTEM    = UTC
MEAN_ELEMENT_THEORY = SGP/SGP4

EPOCH          = 2026-01-16T22:29:12.670944
MEAN_MOTION    = 14.95934873
ECCENTRICITY   = .0015027
INCLINATION    = 82.5059
RA_OF_ASC_NODE = 328.6331
ARG_OF_PERICENTER = 13.5726
MEAN_ANOMALY   = 346.5897

EPHEMERIS_TYPE = 0
CLASSIFICATION_TYPE = U
NORAD_CAT_ID   = 22236
ELEMENT_SET_NO = 999
REV_AT_EPOCH   = 77305
BSTAR          = .16307199E-3
MEAN_MOTION_DOT = .1855E-4
MEAN_MOTION_DDOT = 0

CCSDS_OMM_VERS = 2.0
CREATION_DATE  = 
ORIGINATOR     = 

OBJECT_NAME    = SL-16 R/B
OBJECT_ID      = 1992-093B
CENTER_NAME    = EARTH
REF_FRAME      = TEME
TIME_SYSTEM    = UTC
MEAN_ELEMENT_THEORY = SGP/SGP4

EPOCH          = 2026-01-16T17:25:39.513792
MEAN_MOTION    = 14.15437974
ECCENTRICITY   = .00038271
INCLINATION    = 71.0223
RA_OF_ASC_NODE = 113.3543
ARG_OF_PERICENTER = 355.0745
MEAN_ANOMALY   = 5.0339

EPHEMERIS_TYPE = 0
CLASSIFICATION_TYPE = U
NORAD_CAT_ID   = 22285
ELEMENT_SET_NO = 999
REV_AT_EPOCH   = 70580
BSTAR          = .17446014E-3
MEAN_MOTION_DOT = .293E-5
MEAN_MOTION_DDOT = 0

CCSDS_OMM_VERS = 2.0
CREATION_DATE  = 
ORIGINATOR     = 

OBJECT_NAME    = COSMOS 2228
OBJECT_ID      = 1992-094A
CENTER_NAME    = EARTH
REF_FRAME      = TEME
TIME_SYSTEM    = UTC
MEAN_ELEMENT_THEORY = SGP/SGP4

EPOCH          = 2026-01-16T23:41:25.300896
MEAN_MOTION    = 14.96917346
ECCENTRICITY   = .00194237
INCLINATION    = 82.5189
RA_OF_ASC_NODE = 286.8095
ARG_OF_PERICENTER = 113.1825
MEAN_ANOMALY   = 247.1446

EPHEMERIS_TYPE = 0
CLASSIFICATION_TYPE = U
NORAD_CAT_ID   = 22286
ELEMENT_SET_NO = 999
REV_AT_EPOCH   = 76832
BSTAR          = .14235154E-3
MEAN_MOTION_DOT = .1667E-4
MEAN_MOTION_DDOT = 0

