SL-14 R/B               
1 21423U 91042B   26016.96464463  .00000339  00000+0  39821-4 0  9996
2 21423  82.4927 268.6959 0018325  54.0570 306.2341 14.81775472845418
ERS-1                   
1 21574U 91050A   26016.98049102  .00000267  00000+0  10032-3 0  9995
2 21574  98.7897  33.9162 0031888 357.6719   2.4314 14.39397214808293
ARIANE 40 R/B           
1 21610U 91050F   26016.73824284  .00000203  00000+0  73402-4 0  9992
2 21610  98.2115  70.8976 0002429 212.2924 147.8119 14.42845058811501
INTERCOSMOS 25          
1 21819U 91086A   26016.88955735  .00000580  00000+0  11411-3 0  9993
2 21819  82.6087 341.3143 1486014 228.5745 117.8031 12.11857402490410
SL-8 R/B                
1 21876U 92008B   26016.72978465  .00000071  00000+0  57339-4 0  9994
2 21876  82.9289 306.4245 0033378 280.5749 143.8680 13.75966470702273
SL-8 R/B                
1 21938U 92020B   26016.98446268  .00000176  00000+0  16601-3 0  9998
2 21938  82.9296 192.1440 0030242  82.6349  27.9539 13.75538549694021
USA 81                  
1 21949U 92023A   26016.89384363  .00000171  00000+0  56062-4 0  9991
2 21949  85.0104 161.3033 0001773 117.5468 242.5905 14.32342900 87372
COSMOS 2219             
1 22219U 92076A   26016.74038485 -.00000093  00000+0 -24163-4 0  9997
2 22219  71.0619 126.6693 0020741 278.9191  80.9584 14.14081321711037
SL-16 R/B               
1 22220U 92076B   26016.95016379  .00000041  00000+0  44288-4 0  9991
2 22220  71.0013 297.3625 0012852 184.7877 253.4932 14.16850169714502
COSMOS 2221             
1 22236U 92080A   26016.93695221  .00001855  00000+0  16307-3 0  9994
2 22236  82.5059 328.6331 0015027  13.5726 346.5897 14.95934873773058
SL-16 R/B               
1 22285U 92093B   26016.72615178  .00000293  00000+0  17446-3 0  9992
2 22285  71.0223 113.3543 0003827 355.0745   5.0339 14.15437974705800
COSMOS 2228             
1 22286U 92094A   26016.98709839  .00001667  00000+0  14235-3 0  9999
2 22286  82.5189 286.8095 0019423 113.1825 247.1446 14.96917346768327
